{
  "norad_id": 51965,
  "name": "STARLINK-3696",
  "history": [
    {
      "epoch": "2026-03-28T22:00:01.999584Z",
      "apogee_km": 480.0783507642436,
      "perigee_km": 477.57405066407864,
      "latitude_deg": -44.15233886386092,
      "longitude_deg": 17.917077511662345,
      "height_km": 494.72731628467307,
      "semi_major_axis_km": 6856.963200714161,
      "eccentricity": 0.00018261,
      "inclination_deg": 53.1602,
      "raan_deg": 307.9262,
      "arg_perigee_deg": 95.6291,
      "mean_anomaly_deg": 144.5082,
      "mean_motion_rev_day": 15.28991369
    },
    {
      "epoch": "2026-03-29T04:00:01.999584Z",
      "apogee_km": 479.3426275845559,
      "perigee_km": 476.705747991733,
      "latitude_deg": 2.2011016271444475,
      "longitude_deg": -121.46143257516259,
      "height_km": 478.52979587444213,
      "semi_major_axis_km": 6856.161187788144,
      "eccentricity": 0.0001923,
      "inclination_deg": 53.1537,
      "raan_deg": 306.7649,
      "arg_perigee_deg": 92.9983,
      "mean_anomaly_deg": 84.1458,
      "mean_motion_rev_day": 15.29259662
    }
  ]
}